ONEWEB-0714             
1 54681U 22166AR  26140.54408555  .00000145  00000+0  31964-3 0  9995
2 54681  87.9251 249.4789 0002021  93.9806 266.1559 13.21826826167884
ONEWEB-0532             
1 55140U 23004A   26140.39257448 -.00000133  00000+0 -37490-3 0  9993
2 55140  87.9157  11.3917 0001943  94.0899 266.0454 13.17650266163927
ONEWEB-0533             
1 55141U 23004B   26140.55459678 -.00000558  00000+0 -15858-2 0  9995
2 55141  87.8966 356.1650 0002026  83.8607 276.2752 13.12443114164433
ONEWEB-0541             
1 55142U 23004C   26140.41027732 -.00000432  00000+0 -12540-2 0  9999
2 55142  87.8926  26.5816 0001679  84.5843 275.5477 13.11417501162305
ONEWEB-0543             
1 55143U 23004D   26140.54482059 -.00000005  00000+0 -44637-4 0  9991
2 55143  87.9163 340.9730 0001818  80.2150 279.9187 13.18687135166058
ONEWEB-0544             
1 55144U 23004E   26140.53807651 -.00000064  00000+0 -19552-3 0  9992
2 55144  87.9162 340.9739 0001653  85.2776 274.8545 13.18685297166052
ONEWEB-0560             
1 55145U 23004F   26140.30370356  .00000009  00000+0 -10437-4 0  9997
2 55145  87.9161 341.0096 0001648  82.2908 277.8411 13.18685220166037
ONEWEB-0565             
1 55146U 23004G   26140.29695416 -.00000016  00000+0 -72371-4 0  9997
2 55146  87.9152 341.0415 0001523  97.2868 262.8437 13.18685122166028
ONEWEB-0567             
1 55147U 23004H   26140.51784167  .00000051  00000+0  96312-4 0  9993
2 55147  87.9162 340.9793 0001480  91.3227 268.8074 13.18685045166053
ONEWEB-0569             
1 55148U 23004J   26140.50799787  .00000284  00000+0  74160-3 0  9991
2 55148  87.8948 325.7326 0000945  74.1129 286.0104 13.13471500166547
ONEWEB-0570             
1 55149U 23004K   26140.50942396 -.00000022  00000+0 -88146-4 0  9990
2 55149  87.9163 340.9791 0001925 100.7372 259.3977 13.18687404166041
ONEWEB-0571             
1 55150U 23004L   26140.50267790  .00000021  00000+0  20134-4 0  9990
2 55150  87.9162 340.9795 0000769 116.6254 243.4957 13.18687281166052
ONEWEB-0572             
1 55151U 23004M   26140.57482370  .00000021  00000+0  20619-4 0  9999
2 55151  87.9157  11.3566 0001648  87.1117 273.0203 13.17650767163844
ONEWEB-0573             
1 55152U 23004N   26140.49592899  .00000038  00000+0  62552-4 0  9999
2 55152  87.9165 340.9823 0001075 106.9757 253.1493 13.18686270166049
ONEWEB-0588             
1 55153U 23004P   26140.26155340 -.00000021  00000+0 -87216-4 0  9999
2 55153  87.9162 341.0296 0001869 104.5064 255.6276 13.18687071166012
ONEWEB-0598             
1 55154U 23004Q   26140.38823115 -.00000135  00000+0 -41723-3 0  9993
2 55154  87.8907  26.5996 0001097  74.3132 285.8117 13.11417258162256
