[{"OBJECT_NAME":"ONEWEB-0714","OBJECT_ID":"2022-166AR","EPOCH":"2026-05-20T13:03:28.991520","MEAN_MOTION":13.21826826,"ECCENTRICITY":0.0002021,"INCLINATION":87.9251,"RA_OF_ASC_NODE":249.4789,"ARG_OF_PERICENTER":93.9806,"MEAN_ANOMALY":266.1559,"EPHEMERIS_TYPE":0,"CLASSIFICATION_TYPE":"U","NORAD_CAT_ID":54681,"ELEMENT_SET_NO":999,"REV_AT_EPOCH":16788,"BSTAR":0.00031964,"MEAN_MOTION_DOT":1.45e-06,"MEAN_MOTION_DDOT":0.0},{"OBJECT_NAME":"ONEWEB-0532","OBJECT_ID":"2023-004A","EPOCH":"2026-05-20T09:25:18.435072","MEAN_MOTION":13.17650266,"ECCENTRICITY":0.0001943,"INCLINATION":87.9157,"RA_OF_ASC_NODE":11.3917,"ARG_OF_PERICENTER":94.0899,"MEAN_ANOMALY":266.0454,"EPHEMERIS_TYPE":0,"CLASSIFICATION_TYPE":"U","NORAD_CAT_ID":55140,"ELEMENT_SET_NO":999,"REV_AT_EPOCH":16392,"BSTAR":-0.0003749,"MEAN_MOTION_DOT":-1.33e-06,"MEAN_MOTION_DDOT":0.0},{"OBJECT_NAME":"ONEWEB-0533","OBJECT_ID":"2023-004B","EPOCH":"2026-05-20T13:18:37.161792","MEAN_MOTION":13.12443114,"ECCENTRICITY":0.0002026,"INCLINATION":87.8966,"RA_OF_ASC_NODE":356.165,"ARG_OF_PERICENTER":83.8607,"MEAN_ANOMALY":276.2752,"EPHEMERIS_TYPE":0,"CLASSIFICATION_TYPE":"U","NORAD_CAT_ID":55141,"ELEMENT_SET_NO":999,"REV_AT_EPOCH":16443,"BSTAR":-0.0015858,"MEAN_MOTION_DOT":-5.58e-06,"MEAN_MOTION_DDOT":0.0},{"OBJECT_NAME":"ONEWEB-0541","OBJECT_ID":"2023-004C","EPOCH":"2026-05-20T09:50:47.960448","MEAN_MOTION":13.11417501,"ECCENTRICITY":0.0001679,"INCLINATION":87.8926,"RA_OF_ASC_NODE":26.5816,"ARG_OF_PERICENTER":84.5843,"MEAN_ANOMALY":275.5477,"EPHEMERIS_TYPE":0,"CLASSIFICATION_TYPE":"U","NORAD_CAT_ID":55142,"ELEMENT_SET_NO":999,"REV_AT_EPOCH":16230,"BSTAR":-0.0012540000000000001,"MEAN_MOTION_DOT":-4.32e-06,"MEAN_MOTION_DDOT":0.0},{"OBJECT_NAME":"ONEWEB-0543","OBJECT_ID":"2023-004D","EPOCH":"2026-05-20T13:04:32.498976","MEAN_MOTION":13.18687135,"ECCENTRICITY":0.0001818,"INCLINATION":87.9163,"RA_OF_ASC_NODE":340.973,"ARG_OF_PERICENTER":80.215,"MEAN_ANOMALY":279.9187,"EPHEMERIS_TYPE":0,"CLASSIFICATION_TYPE":"U","NORAD_CAT_ID":55143,"ELEMENT_SET_NO":999,"REV_AT_EPOCH":16605,"BSTAR":-4.4637e-05,"MEAN_MOTION_DOT":-5e-08,"MEAN_MOTION_DDOT":0.0},{"OBJECT_NAME":"ONEWEB-0544","OBJECT_ID":"2023-004E","EPOCH":"2026-05-20T12:54:49.810464","MEAN_MOTION":13.18685297,"ECCENTRICITY":0.0001653,"INCLINATION":87.9162,"RA_OF_ASC_NODE":340.9739,"ARG_OF_PERICENTER":85.2776,"MEAN_ANOMALY":274.8545,"EPHEMERIS_TYPE":0,"CLASSIFICATION_TYPE":"U","NORAD_CAT_ID":55144,"ELEMENT_SET_NO":999,"REV_AT_EPOCH":16605,"BSTAR":-0.00019552,"MEAN_MOTION_DOT":-6.4e-07,"MEAN_MOTION_DDOT":0.0},{"OBJECT_NAME":"ONEWEB-0560","OBJECT_ID":"2023-004F","EPOCH":"2026-05-20T07:17:19.987584","MEAN_MOTION":13.1868522,"ECCENTRICITY":0.0001648,"INCLINATION":87.9161,"RA_OF_ASC_NODE":341.0096,"ARG_OF_PERICENTER":82.2908,"MEAN_ANOMALY":277.8411,"EPHEMERIS_TYPE":0,"CLASSIFICATION_TYPE":"U","NORAD_CAT_ID":55145,"ELEMENT_SET_NO":999,"REV_AT_EPOCH":16603,"BSTAR":-1.0437e-05,"MEAN_MOTION_DOT":9e-08,"MEAN_MOTION_DDOT":0.0},{"OBJECT_NAME":"ONEWEB-0565","OBJECT_ID":"2023-004G","EPOCH":"2026-05-20T07:07:36.839424","MEAN_MOTION":13.18685122,"ECCENTRICITY":0.0001523,"INCLINATION":87.9152,"RA_OF_ASC_NODE":341.0415,"ARG_OF_PERICENTER":97.2868,"MEAN_ANOMALY":262.8437,"EPHEMERIS_TYPE":0,"CLASSIFICATION_TYPE":"U","NORAD_CAT_ID":55146,"ELEMENT_SET_NO":999,"REV_AT_EPOCH":16602,"BSTAR":-7.2371e-05,"MEAN_MOTION_DOT":-1.6e-07,"MEAN_MOTION_DDOT":0.0},{"OBJECT_NAME":"ONEWEB-0567","OBJECT_ID":"2023-004H","EPOCH":"2026-05-20T12:25:41.520288","MEAN_MOTION":13.18685045,"ECCENTRICITY":0.000148,"INCLINATION":87.9162,"RA_OF_ASC_NODE":340.9793,"ARG_OF_PERICENTER":91.3227,"MEAN_ANOMALY":268.8074,"EPHEMERIS_TYPE":0,"CLASSIFICATION_TYPE":"U","NORAD_CAT_ID":55147,"ELEMENT_SET_NO":999,"REV_AT_EPOCH":16605,"BSTAR":9.631200000000001e-05,"MEAN_MOTION_DOT":5.1e-07,"MEAN_MOTION_DDOT":0.0},{"OBJECT_NAME":"ONEWEB-0569","OBJECT_ID":"2023-004J","EPOCH":"2026-05-20T12:11:31.015968","MEAN_MOTION":13.134715,"ECCENTRICITY":9.45e-05,"INCLINATION":87.8948,"RA_OF_ASC_NODE":325.7326,"ARG_OF_PERICENTER":74.1129,"MEAN_ANOMALY":286.0104,"EPHEMERIS_TYPE":0,"CLASSIFICATION_TYPE":"U","NORAD_CAT_ID":55148,"ELEMENT_SET_NO":999,"REV_AT_EPOCH":16654,"BSTAR":0.0007416,"MEAN_MOTION_DOT":2.84e-06,"MEAN_MOTION_DDOT":0.0},{"OBJECT_NAME":"ONEWEB-0570","OBJECT_ID":"2023-004K","EPOCH":"2026-05-20T12:13:34.230144","MEAN_MOTION":13.18687404,"ECCENTRICITY":0.0001925,"INCLINATION":87.9163,"RA_OF_ASC_NODE":340.9791,"ARG_OF_PERICENTER":100.7372,"MEAN_ANOMALY":259.3977,"EPHEMERIS_TYPE":0,"CLASSIFICATION_TYPE":"U","NORAD_CAT_ID":55149,"ELEMENT_SET_NO":999,"REV_AT_EPOCH":16604,"BSTAR":-8.8146e-05,"MEAN_MOTION_DOT":-2.2e-07,"MEAN_MOTION_DDOT":0.0},{"OBJECT_NAME":"ONEWEB-0571","OBJECT_ID":"2023-004L","EPOCH":"2026-05-20T12:03:51.370560","MEAN_MOTION":13.18687281,"ECCENTRICITY":7.69e-05,"INCLINATION":87.9162,"RA_OF_ASC_NODE":340.9795,"ARG_OF_PERICENTER":116.6254,"MEAN_ANOMALY":243.4957,"EPHEMERIS_TYPE":0,"CLASSIFICATION_TYPE":"U","NORAD_CAT_ID":55150,"ELEMENT_SET_NO":999,"REV_AT_EPOCH":16605,"BSTAR":2.0134e-05,"MEAN_MOTION_DOT":2.1e-07,"MEAN_MOTION_DDOT":0.0},{"OBJECT_NAME":"ONEWEB-0572","OBJECT_ID":"2023-004M","EPOCH":"2026-05-20T13:47:44.767680","MEAN_MOTION":13.17650767,"ECCENTRICITY":0.0001648,"INCLINATION":87.9157,"RA_OF_ASC_NODE":11.3566,"ARG_OF_PERICENTER":87.1117,"MEAN_ANOMALY":273.0203,"EPHEMERIS_TYPE":0,"CLASSIFICATION_TYPE":"U","NORAD_CAT_ID":55151,"ELEMENT_SET_NO":999,"REV_AT_EPOCH":16384,"BSTAR":2.0619000000000004e-05,"MEAN_MOTION_DOT":2.1e-07,"MEAN_MOTION_DDOT":0.0},{"OBJECT_NAME":"ONEWEB-0573","OBJECT_ID":"2023-004N","EPOCH":"2026-05-20T11:54:08.264736","MEAN_MOTION":13.1868627,"ECCENTRICITY":0.0001075,"INCLINATION":87.9165,"RA_OF_ASC_NODE":340.9823,"ARG_OF_PERICENTER":106.9757,"MEAN_ANOMALY":253.1493,"EPHEMERIS_TYPE":0,"CLASSIFICATION_TYPE":"U","NORAD_CAT_ID":55152,"ELEMENT_SET_NO":999,"REV_AT_EPOCH":16604,"BSTAR":6.2552e-05,"MEAN_MOTION_DOT":3.8e-07,"MEAN_MOTION_DDOT":0.0},{"OBJECT_NAME":"ONEWEB-0588","OBJECT_ID":"2023-004P","EPOCH":"2026-05-20T06:16:38.213760","MEAN_MOTION":13.18687071,"ECCENTRICITY":0.0001869,"INCLINATION":87.9162,"RA_OF_ASC_NODE":341.0296,"ARG_OF_PERICENTER":104.5064,"MEAN_ANOMALY":255.6276,"EPHEMERIS_TYPE":0,"CLASSIFICATION_TYPE":"U","NORAD_CAT_ID":55153,"ELEMENT_SET_NO":999,"REV_AT_EPOCH":16601,"BSTAR":-8.721600000000001e-05,"MEAN_MOTION_DOT":-2.1e-07,"MEAN_MOTION_DDOT":0.0},{"OBJECT_NAME":"ONEWEB-0598","OBJECT_ID":"2023-004Q","EPOCH":"2026-05-20T09:19:03.171360","MEAN_MOTION":13.11417258,"ECCENTRICITY":0.0001097,"INCLINATION":87.8907,"RA_OF_ASC_NODE":26.5996,"ARG_OF_PERICENTER":74.3132,"MEAN_ANOMALY":285.8117,"EPHEMERIS_TYPE":0,"CLASSIFICATION_TYPE":"U","NORAD_CAT_ID":55154,"ELEMENT_SET_NO":999,"REV_AT_EPOCH":16225,"BSTAR":-0.00041723,"MEAN_MOTION_DOT":-1.35e-06,"MEAN_MOTION_DDOT":0.0}]